OBJECT_NAME,OBJECT_ID,EPOCH,MEAN_MOTION,ECCENTRICITY,INCLINATION,RA_OF_ASC_NODE,ARG_OF_PERICENTER,MEAN_ANOMALY,EPHEMERIS_TYPE,CLASSIFICATION_TYPE,NORAD_CAT_ID,ELEMENT_SET_NO,REV_AT_EPOCH,BSTAR,MEAN_MOTION_DOT,MEAN_MOTION_DDOT
QIANFAN-208,2026-153H,2026-07-18T21:30:05.571648,14.25462891,.0008667,88.9926,358.6211,171.9931,188.1402,0,U,69807,999,207,.61583086E-4,.16E-5,0
QIANFAN-209,2026-153J,2026-07-18T23:20:44.774880,14.23086850,.00078094,88.9926,358.6140,168.3428,191.7946,0,U,69808,999,208,.54959855E-4,.138E-5,0
QIANFAN-210,2026-153K,2026-07-19T07:41:45.500064,14.23252995,.00084124,88.9927,358.5731,170.0018,190.1343,0,U,69809,999,213,.49470794E-4,.126E-5,0
QIANFAN-211,2026-153L,2026-07-19T09:22:00.897888,14.23382557,.00080396,88.9927,358.5648,166.8518,193.2885,0,U,69810,999,214,.4784186E-4,.123E-5,0
QIANFAN-212,2026-153M,2026-07-18T04:32:30.888096,14.22682297,.00122001,88.9888,358.7049,152.0967,208.0882,0,U,69811,999,197,-.97540315E+0,-.201872E-1,0
QIANFAN-213,2026-153N,2026-07-17T21:48:21.510720,14.21939575,.00078274,88.9917,358.7338,155.5754,204.5809,0,U,69812,999,193,-.9822754E+0,-.2004805E-1,0
QIANFAN-214,2026-153P,2026-07-18T23:03:39.865248,14.26672643,.0008141,88.9926,358.6122,171.0888,189.0452,0,U,69813,999,208,.18792264E-4,.6E-6,0
QIANFAN-215,2026-153Q,2026-07-18T23:03:34.083360,14.26719080,.00083545,88.9925,358.6119,173.3885,186.7420,0,U,69814,999,208,.4637606E-4,.127E-5,0
QIANFAN-216,2026-153R,2026-07-19T07:28:31.964448,14.26720384,.00083806,88.9926,358.5716,172.1459,187.9868,0,U,69815,999,213,.56574274E-4,.152E-5,0
QIANFAN-217,2026-153S,2026-07-19T14:11:45.647520,14.26768216,.00081107,88.9926,358.5389,168.0301,192.1087,0,U,69816,999,217,.15723638E-4,.53E-6,0
QIANFAN-218,2026-153T,2026-07-19T14:11:07.184832,14.26811479,.00078854,88.9929,358.5393,165.3869,194.7555,0,U,69817,999,217,.44345086E-4,.122E-5,0
STARLINK-37520,2026-154A,2026-07-19T14:53:10.827744,15.80907676,.00013789,53.1578,270.7766,52.9747,307.1402,0,U,69819,999,351,.61833356E-3,.123294E-2,0
STARLINK-37553,2026-154B,2026-07-19T14:52:05.915424,15.80902774,.00012855,53.1574,270.7705,93.6324,266.4846,0,U,69820,999,351,.58560115E-3,.116613E-2,0
STARLINK-37561,2026-154C,2026-07-19T14:51:00.914112,15.80910339,.00009608,53.1578,270.7648,112.8880,247.2245,0,U,69821,999,351,.55916393E-3,.111285E-2,0
STARLINK-37521,2026-154D,2026-07-19T14:49:56.250624,15.80926163,.0000958,53.1574,270.7604,79.4764,280.6366,0,U,69822,999,351,.80954533E-3,.162518E-2,0
STARLINK-37628,2026-154E,2026-07-19T14:48:51.525792,15.80918478,.00011319,53.1577,270.7550,72.2938,287.8209,0,U,69823,999,351,.78424197E-3,.157264E-2,0
STARLINK-37695,2026-154F,2026-07-19T14:00:01.999872,15.80883143,.00008872,53.1588,270.8450,70.8674,135.7210,0,U,69824,999,337,-.75016722E-4,-.15484E-3,0
STARLINK-37690,2026-154G,2026-07-19T14:00:01.999872,15.80885233,.00010781,53.1587,270.9095,80.5395,95.0383,0,U,69825,999,337,-.11927668E-3,-.24187E-3,0
STARLINK-37710,2026-154H,2026-07-19T14:00:01.999872,15.80881585,.00008151,53.1587,270.9004,72.9674,106.8773,0,U,69826,999,337,-.23316941E-4,-.5299E-4,0
STARLINK-38031,2026-154J,2026-07-19T14:00:01.999872,15.80840158,.00010306,53.1586,270.8913,86.0593,98.0615,0,U,69827,999,337,.18681981E-3,.36272E-3,0
STARLINK-38001,2026-154K,2026-07-19T14:00:01.999872,15.80880428,.00010656,53.1589,270.8828,81.5946,106.8003,0,U,69828,999,337,-.67623917E-4,-.14028E-3,0
STARLINK-37622,2026-154L,2026-07-19T14:00:01.999872,15.80873484,.00010719,53.1589,270.8740,75.3524,117.3182,0,U,69829,999,337,-.73654071E-4,-.1521E-3,0
STARLINK-37621,2026-154M,2026-07-19T14:00:01.999872,15.80882238,.00010658,53.1589,270.8650,80.1740,116.7642,0,U,69830,999,337,-.10023532E-3,-.20443E-3,0
STARLINK-37918,2026-154N,2026-07-19T14:00:01.999872,15.80873787,.00011544,53.1588,270.8562,69.5974,131.6133,0,U,69831,999,337,-.15036373E-4,-.3665E-4,0
STARLINK-37887,2026-154P,2026-07-19T14:00:01.999872,15.80885730,.00009989,53.1588,270.8473,70.7199,134.7619,0,U,69832,999,337,-.16478693E-3,-.33116E-3,0
STARLINK-37624,2026-154Q,2026-07-19T14:00:01.999872,15.80881727,.00011287,53.1587,270.8382,77.5052,132.2483,0,U,69833,999,337,-.93870816E-4,-.19192E-3,0
STARLINK-37769,2026-154R,2026-07-19T14:00:01.999872,15.80876966,.00011,53.1586,270.8293,75.4837,138.5406,0,U,69834,999,337,-.23042443E-4,-.5245E-4,0
STARLINK-37247,2026-154S,2026-07-19T14:00:01.999872,15.80880008,.00010817,53.1586,270.8206,77.8052,140.4905,0,U,69835,999,347,-.64734574E-4,-.13459E-3,0
STARLINK-37569,2026-154T,2026-07-19T14:00:01.999872,15.80883155,.00010184,53.1586,270.8120,76.4756,146.0867,0,U,69836,999,337,-.73790437E-4,-.15243E-3,0
