QIANFAN-208             
1 69807U 26153H   26199.89589782  .00000160  00000+0  61583-4 0  9993
2 69807  88.9926 358.6211 0008667 171.9931 188.1402 14.25462891  2073
QIANFAN-209             
1 69808U 26153J   26199.97274045  .00000138  00000+0  54960-4 0  9992
2 69808  88.9926 358.6140 0007809 168.3428 191.7946 14.23086850  2082
QIANFAN-210             
1 69809U 26153K   26200.32066551  .00000126  00000+0  49471-4 0  9994
2 69809  88.9927 358.5731 0008412 170.0018 190.1343 14.23252995  2130
QIANFAN-211             
1 69810U 26153L   26200.39028817  .00000123  00000+0  47842-4 0  9993
2 69810  88.9927 358.5648 0008039 166.8518 193.2885 14.23382557  2146
QIANFAN-212             
1 69811U 26153M   26199.18924639 -.02018720  00000+0 -97540+0 0  9996
2 69811  88.9888 358.7049 0012200 152.0967 208.0882 14.22682297  1975
QIANFAN-213             
1 69812U 26153N   26198.90858230 -.02004805  00000+0 -98228+0 0  9992
2 69812  88.9917 358.7338 0007827 155.5754 204.5809 14.21939575  1930
QIANFAN-214             
1 69813U 26153P   26199.96087807  .00000060  00000+0  18792-4 0  9992
2 69813  88.9926 358.6122 0008141 171.0888 189.0452 14.26672643  2085
QIANFAN-215             
1 69814U 26153Q   26199.96081115  .00000127  00000+0  46376-4 0  9992
2 69814  88.9925 358.6119 0008354 173.3885 186.7420 14.26719080  2085
QIANFAN-216             
1 69815U 26153R   26200.31148107  .00000152  00000+0  56574-4 0  9999
2 69815  88.9926 358.5716 0008380 172.1459 187.9868 14.26720384  2136
QIANFAN-217             
1 69816U 26153S   26200.59150055  .00000053  00000+0  15724-4 0  9997
2 69816  88.9926 358.5389 0008110 168.0301 192.1087 14.26768216  2175
QIANFAN-218             
1 69817U 26153T   26200.59105538  .00000122  00000+0  44345-4 0  9992
2 69817  88.9929 358.5393 0007885 165.3869 194.7555 14.26811479  2179
STARLINK-37520          
1 69819U 26154A   26200.62026421  .00123294  00000+0  61833-3 0  9998
2 69819  53.1578 270.7766 0001378  52.9747 307.1402 15.80907676  3517
STARLINK-37553          
1 69820U 26154B   26200.61951291  .00116613  00000+0  58560-3 0  9991
2 69820  53.1574 270.7705 0001285  93.6324 266.4846 15.80902774  3511
STARLINK-37561          
1 69821U 26154C   26200.61876058  .00111285  00000+0  55916-3 0  9991
2 69821  53.1578 270.7648 0000960 112.8880 247.2245 15.80910339  3518
STARLINK-37521          
1 69822U 26154D   26200.61801216  .00162518  00000+0  80955-3 0  9992
2 69822  53.1574 270.7604 0000958  79.4764 280.6366 15.80926163  3510
STARLINK-37628          
1 69823U 26154E   26200.61726303  .00157264  00000+0  78424-3 0  9996
2 69823  53.1577 270.7550 0001131  72.2938 287.8209 15.80918478  3517
STARLINK-37695          
1 69824U 26154F   26200.58335648 -.00015484  00000+0 -75017-4 0  9996
2 69824  53.1588 270.8450 0000887  70.8674 135.7210 15.80883143  3375
STARLINK-37690          
1 69825U 26154G   26200.58335648 -.00024187  00000+0 -11928-3 0  9997
2 69825  53.1587 270.9095 0001078  80.5395  95.0383 15.80885233  3373
STARLINK-37710          
1 69826U 26154H   26200.58335648 -.00005299  00000+0 -23317-4 0  9997
2 69826  53.1587 270.9004 0000815  72.9674 106.8773 15.80881585  3377
STARLINK-38031          
1 69827U 26154J   26200.58335648  .00036272  00000+0  18682-3 0  9999
2 69827  53.1586 270.8913 0001030  86.0593  98.0615 15.80840158  3379
STARLINK-38001          
1 69828U 26154K   26200.58335648 -.00014028  00000+0 -67624-4 0  9998
2 69828  53.1589 270.8828 0001065  81.5946 106.8003 15.80880428  3371
STARLINK-37622          
1 69829U 26154L   26200.58335648 -.00015210  00000+0 -73654-4 0  9993
2 69829  53.1589 270.8740 0001071  75.3524 117.3182 15.80873484  3374
STARLINK-37621          
1 69830U 26154M   26200.58335648 -.00020443  00000+0 -10024-3 0  9990
2 69830  53.1589 270.8650 0001065  80.1740 116.7642 15.80882238  3374
STARLINK-37918          
1 69831U 26154N   26200.58335648 -.00003665  00000+0 -15036-4 0  9997
2 69831  53.1588 270.8562 0001154  69.5974 131.6133 15.80873787  3375
STARLINK-37887          
1 69832U 26154P   26200.58335648 -.00033116  00000+0 -16479-3 0  9993
2 69832  53.1588 270.8473 0000998  70.7199 134.7619 15.80885730  3379
STARLINK-37624          
1 69833U 26154Q   26200.58335648 -.00019192  00000+0 -93871-4 0  9994
2 69833  53.1587 270.8382 0001128  77.5052 132.2483 15.80881727  3371
STARLINK-37769          
1 69834U 26154R   26200.58335648 -.00005245  00000+0 -23042-4 0  9992
2 69834  53.1586 270.8293 0001100  75.4837 138.5406 15.80876966  3373
STARLINK-37247          
1 69835U 26154S   26200.58335648 -.00013459  00000+0 -64735-4 0  9993
2 69835  53.1586 270.8206 0001081  77.8052 140.4905 15.80880008  3470
STARLINK-37569          
1 69836U 26154T   26200.58335648 -.00015243  00000+0 -73790-4 0  9998
2 69836  53.1586 270.8120 0001018  76.4756 146.0867 15.80883155  3376
